{
    "links": {
        "self": "http://www.neowsapp.com/rest/v1/neo/3910109?api_key=iIulBulltgU6a56xZRHN4H3l9WmuAYTsLGpBGhQ2"
    },
    "id": "3910109",
    "neo_reference_id": "3910109",
    "name": "(2019 WW6)",
    "designation": "2019 WW6",
    "nasa_jpl_url": "http://ssd.jpl.nasa.gov/sbdb.cgi?sstr=3910109",
    "absolute_magnitude_h": 27.0,
    "estimated_diameter": {
        "kilometers": {
            "estimated_diameter_min": 0.0105816886,
            "estimated_diameter_max": 0.023661375
        },
        "meters": {
            "estimated_diameter_min": 10.5816885933,
            "estimated_diameter_max": 23.6613750114
        },
        "miles": {
            "estimated_diameter_min": 0.0065751544,
            "estimated_diameter_max": 0.0147024923
        },
        "feet": {
            "estimated_diameter_min": 34.7168272045,
            "estimated_diameter_max": 77.6291855923
        }
    },
    "is_potentially_hazardous_asteroid": false,
    "close_approach_data": [
        {
            "close_approach_date": "2019-07-13",
            "close_approach_date_full": "2019-Jul-13 12:26",
            "epoch_date_close_approach": 1563020760000,
            "relative_velocity": {
                "kilometers_per_second": "6.9792045965",
                "kilometers_per_hour": "25125.1365472426",
                "miles_per_hour": "15611.782761813"
            },
            "miss_distance": {
                "astronomical": "0.4793554122",
                "lunar": "186.4692553458",
                "kilometers": "71710548.638092014",
                "miles": "44558868.7015132332"
            },
            "orbiting_body": "Earth"
        },
        {
            "close_approach_date": "2019-11-22",
            "close_approach_date_full": "2019-Nov-22 08:12",
            "epoch_date_close_approach": 1574410320000,
            "relative_velocity": {
                "kilometers_per_second": "12.3783371506",
                "kilometers_per_hour": "44562.0137420045",
                "miles_per_hour": "27689.1023720805"
            },
            "miss_distance": {
                "astronomical": "0.0171782594",
                "lunar": "6.6823429066",
                "kilometers": "2569831.016547478",
                "miles": "1596818.9482040764"
            },
            "orbiting_body": "Earth"
        }
    ],
    "orbital_data": {
        "orbit_id": "1",
        "orbit_determination_date": "2019-12-11 10:12:02",
        "first_observation_date": "2019-11-26",
        "last_observation_date": "2019-11-26",
        "data_arc_in_days": null,
        "observations_used": 9,
        "orbit_uncertainty": "8",
        "minimum_orbit_intersection": ".013928",
        "jupiter_tisserand_invariant": "4.240",
        "epoch_osculation": "2458813.5",
        "eccentricity": ".4263428783309659",
        "semi_major_axis": "1.590050418383156",
        "inclination": "14.60185234364743",
        "ascending_node_longitude": "60.74102888954329",
        "orbital_period": "732.3433967101781",
        "perihelion_distance": ".9121437463183244",
        "perihelion_argument": "313.1990037592495",
        "aphelion_distance": "2.267957090447987",
        "perihelion_time": "2458774.485811516154",
        "mean_anomaly": "19.17830886067626",
        "mean_motion": ".4915726715324895",
        "equinox": "J2000",
        "orbit_class": {
            "orbit_class_type": "APO",
            "orbit_class_description": "Near-Earth asteroid orbits which cross the Earth’s orbit similar to that of 1862 Apollo",
            "orbit_class_range": "a (semi-major axis) > 1.0 AU; q (perihelion) < 1.017 AU"
        }
    },
    "is_sentry_object": false
}